OBJECT_NAME,OBJECT_ID,EPOCH,MEAN_MOTION,ECCENTRICITY,INCLINATION,RA_OF_ASC_NODE,ARG_OF_PERICENTER,MEAN_ANOMALY,EPHEMERIS_TYPE,CLASSIFICATION_TYPE,NORAD_CAT_ID,ELEMENT_SET_NO,REV_AT_EPOCH,BSTAR,MEAN_MOTION_DOT,MEAN_MOTION_DDOT
INTELSAT 902 (IS-902),2001-039A,2026-07-05T09:02:54.116736,1.00270857,.00043007,6.1619,71.5603,30.8596,266.5630,0,U,26900,999,9087,0,-.273E-5,0
INTELSAT 904 (IS-904),2002-007A,2026-07-05T10:16:07.421088,1.00270515,.00060381,6.9623,68.9648,18.9332,318.0715,0,U,27380,999,5194,0,-.215E-5,0
DIRECTV 5 (TEMPO 1),2002-023A,2026-07-05T13:29:21.780096,1.00271556,.00034605,4.9215,75.0837,42.4456,258.2609,0,U,27426,999,8830,0,-.46E-6,0
INTELSAT 905 (IS-905),2002-027A,2026-07-04T18:22:10.242912,1.00272930,.00038993,6.7946,69.5884,37.7783,313.7493,0,U,27438,999,5153,0,.103E-5,0
GALAXY 3C (G-3C),2002-030A,2026-07-05T03:07:32.953728,1.00271566,.0001805,3.7762,77.7473,32.1865,125.2617,0,U,27445,999,4667,0,-.141E-5,0
INTELSAT 906 (IS-906),2002-041A,2026-07-05T05:35:24.320832,1.00271099,.00040411,5.8472,72.6991,13.2338,345.2811,0,U,27513,999,8720,0,.24E-6,0
GALAXY 13 (HORIZONS-1),2003-044A,2026-07-05T13:04:28.839936,1.00273610,.00017269,1.4658,83.6287,19.1192,226.8957,0,U,27954,999,4675,0,.146E-5,0
INTELSAT 10-02,2004-022A,2026-07-05T00:08:56.036832,1.00270331,.0000499,0.0397,258.3722,291.2155,94.6491,0,U,28358,999,8073,0,.2E-7,0
DIRECTV 8,2005-019A,2026-07-05T13:32:17.344896,1.00270132,.00031463,0.0219,43.1954,76.6613,247.7267,0,U,28659,999,7725,0,0,0
GALAXY 28 (G-28),2005-022A,2026-07-04T22:18:48.843936,1.00269863,.0002414,3.3414,78.7199,25.0359,126.7797,0,U,28702,999,5215,0,-.189E-5,0
GALAXY 16 (G-16),2006-023A,2026-07-05T11:39:30.894336,1.00271157,.00026162,0.0288,137.9656,327.9973,253.3975,0,U,29236,999,7315,0,-.113E-5,0
DIRECTV 9S,2006-043A,2026-07-05T13:23:12.991200,1.00271499,.00052537,2.4651,80.6893,27.0136,275.4583,0,U,29494,999,5156,0,-.101E-5,0
GALAXY 17 (G-17),2007-016B,2026-07-05T13:26:12.916608,1.00269900,.00038787,3.0152,79.6762,26.1866,294.2205,0,U,31307,999,6998,0,-.194E-5,0
INTELSAT 11 (IS-11),2007-044B,2026-07-05T14:54:46.617696,0.99048843,.00036975,3.6102,78.4517,93.3467,20.1944,0,U,32253,999,6863,0,.72E-6,0
HORIZONS-2,2007-063B,2026-07-05T11:46:45.200352,1.00273139,.00039388,2.6462,80.4103,11.5162,294.4498,0,U,32388,999,6799,0,-.241E-5,0
DIRECTV 11,2008-013A,2026-07-05T13:22:13.300032,1.00271293,.00003316,0.0453,214.1803,237.6183,293.1282,0,U,32729,999,4577,0,-.112E-5,0
GALAXY 18 (G-18),2008-024A,2026-07-05T01:16:48.849888,1.00272403,.000309,0.0194,73.8721,38.5203,66.8693,0,U,32951,999,4603,0,.38E-6,0
GALAXY 19 (G-19),2008-045A,2026-07-05T13:22:43.252320,1.00270852,.00029043,0.0442,243.0433,241.0370,263.1428,0,U,33376,999,6508,0,-.125E-5,0
FM-5,2009-034A,2026-07-02T18:42:12.903264,1.00271535,.00009637,0.0343,275.0250,71.7322,128.4433,0,U,35493,999,4680,0,-.189E-5,0
INTELSAT 14 (IS-14),2009-064A,2026-07-05T11:54:59.410080,1.00272233,.0002507,0.0102,319.6479,147.1238,310.4796,0,U,36097,999,6078,0,-.26E-5,0
INTELSAT 15 (IS-15),2009-067A,2026-07-05T10:49:29.055072,1.00271724,.000231,0.0052,51.6530,60.0662,59.2529,0,U,36106,999,4141,0,-.172E-5,0
DIRECTV 12,2009-075A,2026-07-02T15:12:13.817664,1.00269592,.00002931,0.0418,186.0830,277.3252,302.5946,0,U,36131,999,4670,0,-.92E-6,0
INTELSAT 16 (IS-16),2010-006A,2026-07-05T13:28:42.678048,1.00271270,.00024122,0.0110,41.4612,82.9208,285.1570,0,U,36397,999,5983,0,-.231E-5,0
XM-5,2010-053A,2026-07-02T20:29:51.095904,1.00271810,.00024153,0.0667,268.1133,288.6084,276.4302,0,U,37185,999,5764,0,-.12E-6,0
INTELSAT 17 (IS-17),2010-065B,2026-07-05T12:26:33.883008,1.00272227,.0002566,0.0049,52.7565,55.7999,67.5807,0,U,37238,999,5343,0,.12E-6,0
INTELSAT 28 (IS-28),2011-016A,2026-07-05T10:16:07.421088,1.00271051,.0003825,1.8503,82.4089,25.8482,297.4546,0,U,37392,999,5346,0,-.212E-5,0
INTELSAT 18 (IS-18),2011-056A,2026-07-05T10:49:41.837088,1.00271952,.0001923,0.0188,292.5048,180.8739,152.4864,0,U,37834,999,5399,0,.66E-6,0
INTELSAT 22 (IS-22),2012-011A,2026-07-05T14:11:04.763040,1.00271439,.00017117,0.0226,59.3829,42.6977,106.3595,0,U,38098,999,737,0,-.45E-6,0
INTELSAT 19 (IS-19),2012-030A,2026-07-05T12:38:27.445920,1.00271542,.0003286,0.0165,41.7879,73.6475,163.6990,0,U,38356,999,5063,0,-.43E-6,0
INTELSAT 20 (IS-20),2012-043A,2026-07-05T09:01:51.322080,1.00270808,.0001292,0.0105,54.7951,124.8987,307.6269,0,U,38740,999,5093,0,-.11E-6,0
INTELSAT 21 (IS-21),2012-045A,2026-07-05T11:51:14.770080,1.00271265,.000184,0.0175,297.3430,184.2465,281.7196,0,U,38749,999,5070,0,-.271E-5,0
